{"fetched_at":"2026-03-30T06:02:59Z","count":15439,"tles":[{"name":"STARLINK-3139","line1":"1 49425U 21104T   26087.88570189  .00001452  00000+0  10928-3 0  9995","line2":"2 49425  53.2165 142.9585 0001024  68.7288 291.3814 15.08835108241530","category":"Starlink"}]}