{
  "norad_id": 49425,
  "name": "STARLINK-3139",
  "history": [
    {
      "epoch": "2026-03-28T21:15:24.643296Z",
      "apogee_km": 540.4667343744395,
      "perigee_km": 539.0499494084197,
      "latitude_deg": 4.834323265234848e-05,
      "longitude_deg": -2.1938679939173475,
      "height_km": 540.3975065696964,
      "semi_major_axis_km": 6917.895341891429,
      "eccentricity": 0.0001024,
      "inclination_deg": 53.2165,
      "raan_deg": 142.9585,
      "arg_perigee_deg": 68.7288,
      "mean_anomaly_deg": 291.3814,
      "mean_motion_rev_day": 15.08835108
    }
  ]
}